{
    "links": {
        "self": "http://www.neowsapp.com/rest/v1/neo/3841543?api_key=iIulBulltgU6a56xZRHN4H3l9WmuAYTsLGpBGhQ2"
    },
    "id": "3841543",
    "neo_reference_id": "3841543",
    "name": "(2019 HQ2)",
    "designation": "2019 HQ2",
    "nasa_jpl_url": "http://ssd.jpl.nasa.gov/sbdb.cgi?sstr=3841543",
    "absolute_magnitude_h": 24.7,
    "estimated_diameter": {
        "kilometers": {
            "estimated_diameter_min": 0.0305179233,
            "estimated_diameter_max": 0.0682401509
        },
        "meters": {
            "estimated_diameter_min": 30.5179232594,
            "estimated_diameter_max": 68.2401509401
        },
        "miles": {
            "estimated_diameter_min": 0.0189629525,
            "estimated_diameter_max": 0.0424024508
        },
        "feet": {
            "estimated_diameter_min": 100.1244233463,
            "estimated_diameter_max": 223.8850168104
        }
    },
    "is_potentially_hazardous_asteroid": false,
    "close_approach_data": [
        {
            "close_approach_date": "2019-04-19",
            "close_approach_date_full": "2019-Apr-19 11:31",
            "epoch_date_close_approach": 1555673460000,
            "relative_velocity": {
                "kilometers_per_second": "15.4183084071",
                "kilometers_per_hour": "55505.9102654498",
                "miles_per_hour": "34489.2140757735"
            },
            "miss_distance": {
                "astronomical": "0.03961898",
                "lunar": "15.41178322",
                "kilometers": "5926915.0195726",
                "miles": "3682814.21879788"
            },
            "orbiting_body": "Earth"
        },
        {
            "close_approach_date": "2021-11-19",
            "close_approach_date_full": "2021-Nov-19 17:54",
            "epoch_date_close_approach": 1637344440000,
            "relative_velocity": {
                "kilometers_per_second": "26.1456656139",
                "kilometers_per_hour": "94124.3962100825",
                "miles_per_hour": "58485.2394117593"
            },
            "miss_distance": {
                "astronomical": "0.393777324",
                "lunar": "153.179379036",
                "kilometers": "58908248.92469988",
                "miles": "36603888.536943144"
            },
            "orbiting_body": "Earth"
        }
    ],
    "orbital_data": {
        "orbit_id": "5",
        "orbit_determination_date": "2019-05-08 07:09:05",
        "first_observation_date": "2019-04-24",
        "last_observation_date": "2019-05-06",
        "data_arc_in_days": 12,
        "observations_used": 36,
        "orbit_uncertainty": "8",
        "minimum_orbit_intersection": ".0369031",
        "jupiter_tisserand_invariant": "3.583",
        "epoch_osculation": "2458599.5",
        "eccentricity": ".6066339326945162",
        "semi_major_axis": "1.996751597919819",
        "inclination": "7.433814198547722",
        "ascending_node_longitude": "191.9007602690065",
        "orbital_period": "1030.586591733429",
        "perihelion_distance": ".7854543234596598",
        "perihelion_argument": "312.3627955365218",
        "aphelion_distance": "3.208048872379978",
        "perihelion_time": "2458550.816579373444",
        "mean_anomaly": "17.00587953126935",
        "mean_motion": ".3493156255744472",
        "equinox": "J2000",
        "orbit_class": {
            "orbit_class_type": "APO",
            "orbit_class_description": "Near-Earth asteroid orbits which cross the Earth’s orbit similar to that of 1862 Apollo",
            "orbit_class_range": "a (semi-major axis) > 1.0 AU; q (perihelion) < 1.017 AU"
        }
    },
    "is_sentry_object": false
}